     2.100          NAVIGATION                              RINEX VERSION / TYPE
fic2rin                                 02/20/2010 00:38:45 PGM / RUN BY / DATE
                                                            END OF HEADER
11 10  2 19 21 59 44.0 -.462960451841D-04 -.216004991671D-11  .000000000000D+00
     .600000000000D+01  .255937500000D+02  .613168398068D-08  .531545514353D+00
     .139698386192D-05  .104914732510D-01  .100266188383D-04  .515372720146D+04
     .511184000000D+06 -.145286321640D-06  .892678946404D+00  .165775418282D-06
     .888740877728D+00  .148812500000D+03  .794061018594D+00 -.883322508214D-08
    -.143577409147D-09  .100000000000D+01  .157100000000D+04  .000000000000D+00
     .240000000000D+01  .000000000000D+00 -.116415321827D-07  .600000000000D+01
     .504006000000D+06  .400000000000D+01
30 10  2 19 21 59 44.0  .221072230488D-03  .341060513165D-11  .000000000000D+00
     .160000000000D+02 -.487500000000D+01  .485377360772D-08 -.174021745033D+01
    -.108033418655D-06  .119738666108D-01  .578165054321D-05  .515377258301D+04
     .511184000000D+06  .216066837311D-06 -.101613990765D+01  .260770320892D-06
     .954785834388D+00  .263406250000D+03  .147346943297D+01 -.817105464294D-08
     .217866217860D-09  .100000000000D+01  .157100000000D+04  .000000000000D+00
     .240000000000D+01  .000000000000D+00 -.791624188423D-08  .160000000000D+02
     .504006000000D+06  .400000000000D+01
 1 10  2 19 22  0  0.0 -.901808962226D-04 -.386535248253D-11  .000000000000D+00
     .590000000000D+02 -.102187500000D+02  .591131765868D-08 -.146397565201D+01
    -.527128577232D-06  .435234536417D-02  .596046447754D-05  .515479361534D+04
     .511200000000D+06  .160187482834D-06 -.977899141287D+00 -.372529029846D-08
     .963489803435D+00  .266625000000D+03  .881657745841D+00 -.809533720329D-08
     .203222750758D-09  .100000000000D+01  .157100000000D+04  .000000000000D+00
     .240000000000D+01  .630000000000D+02 -.190921127796D-07  .590000000000D+02
     .504006000000D+06  .400000000000D+01
 2 10  2 19 22  0  0.0  .228464603424D-03  .397903932026D-11  .000000000000D+00
     .650000000000D+02  .643437500000D+02  .485448792319D-08  .231135254591D+01
     .335834920406D-05  .937551143579D-02  .991486012936D-05  .515378478050D+04
     .511200000000D+06 -.651925802231D-07  .110640226036D+01  .216066837311D-06
     .940150016336D+00  .173343750000D+03  .296705350969D+01 -.810390898891D-08
     .171435712414D-10  .100000000000D+01  .157100000000D+04  .000000000000D+00
     .240000000000D+01  .000000000000D+00 -.172294676304D-07  .650000000000D+02
     .504006000000D+06  .400000000000D+01
 3 10  2 19 22  0  0.0  .518069602549D-03  .511590769747D-11  .000000000000D+00
     .560000000000D+02 -.450937500000D+02  .538701010488D-08  .215673738072D+01
    -.245496630669D-05  .128383806441D-01  .726804137230D-05  .515369027138D+04
     .511200000000D+06 -.894069671631D-07 -.443688760732D-01 -.294297933578D-06
     .927329583068D+00  .222437500000D+03  .981115172116D+00 -.837963475971D-08
    -.170007081477D-09  .100000000000D+01  .157100000000D+04  .000000000000D+00
     .340000000000D+01  .000000000000D+00 -.419095158577D-08  .560000000000D+02
     .504006000000D+06  .400000000000D+01
 4 10  2 19 22  0  0.0  .190171413124D-04  .909494701773D-11  .000000000000D+00
     .440000000000D+02  .562812500000D+02  .485484508093D-08 -.984963024098D+00
     .309199094772D-05  .911729095969D-02  .927038490772D-05  .515364209557D+04
     .511200000000D+06  .201165676117D-06  .112440240378D+01  .502914190292D-07
     .939294396513D+00  .185125000000D+03  .597035818790D+00 -.819319842246D-08
     .101432796512D-09  .100000000000D+01  .157100000000D+04  .000000000000D+00
     .240000000000D+01  .000000000000D+00 -.605359673500D-08  .440000000000D+02
     .504006000000D+06  .400000000000D+01
 5 10  2 19 22  0  0.0 -.727688893676D-05  .227373675443D-11  .000000000000D+00
     .320000000000D+02  .547812500000D+02  .487091717897D-08 -.253619314489D+01
     .275671482086D-05  .189090601634D-02  .402890145779D-05  .515365270424D+04
     .511200000000D+06  .111758708954D-07  .216587741493D+01 -.279396772385D-07
     .959270417075D+00  .303281250000D+03  .345792578186D+00 -.833177562333D-08
     .625026034843D-10  .100000000000D+01  .157100000000D+04  .000000000000D+00
     .240000000000D+01  .000000000000D+00 -.884756445885D-08  .320000000000D+02
     .504006000000D+06  .400000000000D+01
 7 10  2 19 22  0  0.0  .263657420874D-05 -.568434188608D-12  .000000000000D+00
     .550000000000D+02 -.154375000000D+02  .412802909184D-08  .623351383144D+00
    -.908970832825D-06  .324532610830D-02  .881962478161D-05  .515372894096D+04
     .511200000000D+06  .521540641785D-07 -.201789785451D+01  .000000000000D+00
     .970510983667D+00  .212406250000D+03  .307107526231D+01 -.790354350003D-08
     .118576367753D-09  .100000000000D+01  .157100000000D+04  .000000000000D+00
     .240000000000D+01  .000000000000D+00 -.107102096081D-07  .550000000000D+02
     .504006000000D+06  .400000000000D+01
 8 10  2 19 22  0  0.0  .345241278410D-05  .454747350886D-12  .000000000000D+00
     .740000000000D+02 -.124062500000D+02  .369122518292D-08  .241689939356D-01
    -.825151801109D-06  .109443045221D-01  .885874032974D-05  .515372062874D+04
     .511200000000D+06  .141561031342D-06 -.195198708254D+01 -.242143869400D-07
     .991786291994D+00  .224375000000D+03  .308865190266D+01 -.779603902203D-08
     .153934983439D-09  .100000000000D+01  .157100000000D+04  .000000000000D+00
     .240000000000D+01  .000000000000D+00 -.419095158577D-08  .740000000000D+02
     .504006000000D+06  .400000000000D+01
 9 10  2 19 22  0  0.0  .107057392597D-03  .227373675443D-11  .000000000000D+00
     .110000000000D+02 -.180937500000D+02  .403695386962D-08 -.109693389467D+00
    -.888481736183D-06  .206927495310D-01  .991858541965D-05  .515360977554D+04
     .511200000000D+06 -.324100255966D-06 -.204999391729D+01  .912696123123D-07
     .979333684607D+00  .201000000000D+03  .153052611854D+01 -.815783980677D-08
     .190722230061D-09  .100000000000D+01  .157100000000D+04  .000000000000D+00
     .240000000000D+01  .000000000000D+00 -.558793544769D-08  .110000000000D+02
     .504006000000D+06  .400000000000D+01
10 10  2 19 22  0  0.0 -.359327532351D-04 -.102318153949D-11  .000000000000D+00
     .330000000000D+02  .515937500000D+02  .494449167221D-08 -.254088335680D+01
     .248663127422D-05  .913418992423D-02  .376068055630D-05  .515345527649D+04
     .511200000000D+06  .856816768646D-07  .219219570762D+01 -.149011611938D-06
     .954329488797D+00  .304593750000D+03  .653956815789D+00 -.831070331701D-08
     .989326923723D-10  .100000000000D+01  .157100000000D+04  .000000000000D+00
     .340000000000D+01  .000000000000D+00 -.279396772385D-08  .330000000000D+02
     .504006000000D+06  .400000000000D+01
12 10  2 19 22  0  0.0 -.148015562445D-03  .477484718431D-11  .000000000000D+00
     .860000000000D+02 -.115937500000D+02  .462054960729D-08  .721625084867D+00
    -.713393092155D-06  .343528948724D-02  .568851828575D-05  .515374168205D+04
     .511200000000D+06  .763684511185D-07 -.964071563530D+00 -.130385160446D-07
     .969577195742D+00  .273625000000D+03 -.541860643356D+00 -.815069665209D-08
     .197865384745D-09  .100000000000D+01  .157100000000D+04  .000000000000D+00
     .240000000000D+01  .000000000000D+00 -.121071934700D-07  .860000000000D+02
     .504006000000D+06  .400000000000D+01
13 10  2 19 22  0  0.0  .306399073452D-03 -.227373675443D-12  .000000000000D+00
     .780000000000D+02 -.538750000000D+02  .383373111886D-08  .312887931031D+01
    -.268220901489D-05  .415300403256D-02  .634975731373D-05  .515358813477D+04
     .511200000000D+06  .122934579849D-06 -.300098008529D+01 -.204890966415D-07
     .993838514438D+00  .274093750000D+03  .163780408397D+01 -.776960934970D-08
    -.241081470582D-09  .100000000000D+01  .157100000000D+04  .000000000000D+00
     .240000000000D+01  .000000000000D+00 -.111758708954D-07  .780000000000D+02
     .504006000000D+06  .400000000000D+01
14 10  2 19 22  0  0.0  .136606395245D-04  .420641299570D-11  .000000000000D+00
     .410000000000D+02 -.598125000000D+02  .397409410840D-08  .295113976833D+01
    -.302121043205D-05  .497948878910D-02  .596791505814D-05  .515371141815D+04
     .511200000000D+06  .204890966415D-07 -.302215362865D+01 -.540167093277D-07
     .987157045728D+00  .275593750000D+03 -.209682157976D+01 -.784818405122D-08
    -.326085011321D-09  .100000000000D+01  .157100000000D+04  .000000000000D+00
     .240000000000D+01  .000000000000D+00 -.884756445885D-08  .410000000000D+02
     .504006000000D+06  .400000000000D+01
15 10  2 19 22  0  0.0 -.305137131363D-03  .318323145621D-11  .000000000000D+00
     .710000000000D+02 -.514687500000D+02  .477555606394D-08  .298812748977D+01
    -.261701643467D-05  .240176171064D-02  .599026679993D-05  .515372933388D+04
     .511200000000D+06 -.987201929092D-07 -.308307610158D+01  .316649675369D-07
     .954840070613D+00  .260937500000D+03 -.283002969741D+00 -.824677208259D-08
    -.261082303697D-09  .100000000000D+01  .157100000000D+04  .000000000000D+00
     .240000000000D+01  .000000000000D+00 -.977888703346D-08  .710000000000D+02
     .504006000000D+06  .400000000000D+01
16 10  2 19 22  0  0.0 -.432035885751D-04 -.397903932026D-11  .000000000000D+00
     .730000000000D+02 -.130937500000D+02  .447911514455D-08 -.162389546494D+01
    -.702217221260D-06  .569101178553D-02  .616163015366D-05  .515370713425D+04
     .511200000000D+06 -.447034835815D-07 -.946762259763D+00 -.353902578354D-07
     .970867351974D+00  .269093750000D+03 -.272121160401D+00 -.802962018020D-08
     .308227124611D-09  .100000000000D+01  .157100000000D+04  .000000000000D+00
     .240000000000D+01  .000000000000D+00 -.977888703346D-08  .730000000000D+02
     .504006000000D+06  .400000000000D+01
